COMMENT,ORIGINATOR,NORAD_CAT_ID,OBJECT_NAME,OBJECT_TYPE,CLASSIFICATION_TYPE,INTLDES,EPOCH,EPOCH_MICROSECONDS,MEAN_MOTION,ECCENTRICITY,INCLINATION,RA_OF_ASC_NODE,ARG_OF_PERICENTER,MEAN_ANOMALY,EPHEMERIS_TYPE,ELEMENT_SET_NO,REV_AT_EPOCH,BSTAR,MEAN_MOTION_DOT,MEAN_MOTION_DDOT,FILE,TLE_LINE0,TLE_LINE1,TLE_LINE2,OBJECT_ID,OBJECT_NUMBER,SEMIMAJOR_AXIS,PERIOD,APOGEE,PERIGEE,DECAYED,date
GENERATED VIA SPACETRACK.ORG API,18 SPCS,48890,SPACEBEE-104,PAYLOAD,U,21059M,2023/1/22 21:08,897952,15.2186796,0.0008315,97.5764,157.4765,60.4685,299.7379,0,999,8722,0.0012652,0.00028819,0,3758391,0 SPACEBEE-104,1 48890U 21059M   23022.88110993  .00028819  00000-0  12652-2 0  9990,2 48890  97.5764 157.4765 0008315  60.4685 299.7379 15.21867960 87220,2021-059M,48890,6878.343,94.621,505.928,494.489,0,2023/2/16
GENERATED VIA SPACETRACK.ORG API,18 SPCS,48890,SPACEBEE-104,PAYLOAD,U,21059M,2023/1/23 22:23,581664,15.21931322,0.0008238,97.5763,158.5359,56.501,303.7012,0,999,8738,0.0012802,0.00029216,0,3759410,0 SPACEBEE-104,1 48890U 21059M   23023.93309701  .00029216  00000-0  12802-2 0  9993,2 48890  97.5763 158.5359 0008238  56.5010 303.7012 15.21931322 87383,2021-059M,48890,6878.153,94.617,505.684,494.351,0,2023/2/17
GENERATED VIA SPACETRACK.ORG API,18 SPCS,48890,SPACEBEE-104,PAYLOAD,U,21059M,2023/1/25 2:47,366528,15.21997647,0.0008257,97.5762,159.7281,52.688,307.5107,0,999,8756,0.0012752,0.00029159,0,3760407,0 SPACEBEE-104,1 48890U 21059M   23025.11653202  .00029159  00000-0  12752-2 0  9993,2 48890  97.5762 159.7281 0008257  52.6880 307.5107 15.21997647 87561,2021-059M,48890,6877.953,94.612,505.497,494.139,0,2023/2/18
GENERATED VIA SPACETRACK.ORG API,18 SPCS,48890,SPACEBEE-104,PAYLOAD,U,21059M,2023/1/25 7:31,376352,15.22007196,0.0008277,97.5767,159.9273,51.883,308.3151,0,999,8759,0.0011112,0.00025394,0,3761297,0 SPACEBEE-104,1 48890U 21059M   23025.31376593  .00025394  00000-0  11112-2 0  9996,2 48890  97.5767 159.9273 0008277  51.8830 308.3151 15.22007196 87590,2021-059M,48890,6877.924,94.612,505.482,494.096,0,2023/2/19
GENERATED VIA SPACETRACK.ORG API,18 SPCS,48890,SPACEBEE-104,PAYLOAD,U,21059M,2023/1/26 8:46,901312,15.22065606,0.0008347,97.5765,160.987,48.914,311.2816,0,999,8775,0.0011638,0.0002665,0,3761854,0 SPACEBEE-104,1 48890U 21059M   23026.36565858  .00026650  00000-0  11638-2 0  9995,2 48890  97.5765 160.9870 0008347  48.9140 311.2816 15.22065606 87751,2021-059M,48890,6877.748,94.608,505.354,493.872,0,2023/2/20
GENERATED VIA SPACETRACK.ORG API,18 SPCS,48890,SPACEBEE-104,PAYLOAD,U,21059M,2023/1/26 8:46,901312,15.22065606,0.0008347,97.5765,160.987,48.914,311.2816,0,999,8775,0.0011638,0.0002665,0,3761951,0 SPACEBEE-104,1 48890U 21059M   23026.36565858  .00026650  00000-0  11638-2 0  9995,2 48890  97.5765 160.9870 0008347  48.9140 311.2816 15.22065606 87751,2021-059M,48890,6877.748,94.608,505.354,493.872,0,2023/2/21
GENERATED VIA SPACETRACK.ORG API,18 SPCS,48890,SPACEBEE-104,PAYLOAD,U,21059M,2023/1/27 14:45,829248,15.2212646,0.000826,97.5763,162.2451,44.6958,315.4943,0,999,8794,0.0010213,0.00023409,0,3762956,0 SPACEBEE-104,1 48890U 21059M   23027.61473182  .00023409  00000-0  10213-2 0  9999,2 48890  97.5763 162.2451 0008260  44.6958 315.4943 15.22126460 87947,2021-059M,48890,6877.565,94.604,505.111,493.749,0,2023/2/22
GENERATED VIA SPACETRACK.ORG API,18 SPCS,48890,SPACEBEE-104,PAYLOAD,U,21059M,2023/1/27 14:45,829248,15.2212646,0.000826,97.5763,162.2451,44.6958,315.4943,0,999,8794,0.0010213,0.00023409,0,3763063,0 SPACEBEE-104,1 48890U 21059M   23027.61473182  .00023409  00000-0  10213-2 0  9999,2 48890  97.5763 162.2451 0008260  44.6958 315.4943 15.22126460 87947,2021-059M,48890,6877.565,94.604,505.111,493.749,0,2023/2/23
GENERATED VIA SPACETRACK.ORG API,18 SPCS,48890,SPACEBEE-104,PAYLOAD,U,21059M,2023/1/27 21:03,314912,15.22137827,0.0008244,97.5763,162.5099,43.8632,316.3257,0,999,8798,0.00097038,0.00022242,0,3763218,0 SPACEBEE-104,1 48890U 21059M   23027.87768883  .00022242  00000-0  97038-3 0  9997,2 48890  97.5763 162.5099 0008244  43.8632 316.3257 15.22137827 87981,2021-059M,48890,6877.53,94.604,505.065,493.726,0,2023/2/24
GENERATED VIA SPACETRACK.ORG API,18 SPCS,48890,SPACEBEE-104,PAYLOAD,U,21059M,2023/1/28 14:25,919200,15.22167647,0.00082,97.5761,163.2385,41.0484,319.1367,0,999,8809,0.00087099,0.00019968,0,3763924,0 SPACEBEE-104,1 48890U 21059M   23028.60080925  .00019968  00000-0  87099-3 0  9990,2 48890  97.5761 163.2385 0008200  41.0484 319.1367 15.22167647 88091,2021-059M,48890,6877.441,94.602,504.945,493.666,0,2023/2/25
GENERATED VIA SPACETRACK.ORG API,18 SPCS,48890,SPACEBEE-104,PAYLOAD,U,21059M,2023/1/28 19:09,75744,15.22175953,0.0008178,97.5761,163.4372,40.4432,319.7411,0,999,8812,0.00085006,0.0001949,0,3764014,0 SPACEBEE-104,1 48890U 21059M   23028.79802171  .00019490  00000-0  85006-3 0  9991,2 48890  97.5761 163.4372 0008178  40.4432 319.7411 15.22175953 88128,2021-059M,48890,6877.416,94.601,504.905,493.656,0,2023/2/26
GENERATED VIA SPACETRACK.ORG API,18 SPCS,48890,SPACEBEE-104,PAYLOAD,U,21059M,2023/1/28 19:09,75744,15.22175953,0.0008178,97.5761,163.4372,40.4432,319.7411,0,999,8812,0.00085006,0.0001949,0,3764201,0 SPACEBEE-104,1 48890U 21059M   23028.79802171  .00019490  00000-0  85006-3 0  9991,2 48890  97.5761 163.4372 0008178  40.4432 319.7411 15.22175953 88128,2021-059M,48890,6877.416,94.601,504.905,493.656,0,2023/2/27
GENERATED VIA SPACETRACK.ORG API,18 SPCS,48890,SPACEBEE-104,PAYLOAD,U,21059M,2023/1/29 20:23,982656,15.22217401,0.0008206,97.5763,164.4972,36.8165,323.3633,0,999,8828,0.00075531,0.00017325,0,3765015,0 SPACEBEE-104,1 48890U 21059M   23029.84980304  .00017325  00000-0  75531-3 0  9990,2 48890  97.5763 164.4972 0008206  36.8165 323.3633 15.22217401 88280,2021-059M,48890,6877.291,94.599,504.799,493.512,0,2023/2/28
GENERATED VIA SPACETRACK.ORG API,18 SPCS,48890,SPACEBEE-104,PAYLOAD,U,21059M,2023/1/30 2:42,72960,15.22227309,0.0008205,97.5762,164.7626,35.9143,324.2643,0,999,8832,0.00080446,0.00018466,0,3765149,0 SPACEBEE-104,1 48890U 21059M   23030.11274390  .00018466  00000-0  80446-3 0  9991,2 48890  97.5762 164.7626 0008205  35.9143 324.2643 15.22227309 88327,2021-059M,48890,6877.261,94.598,504.769,493.483,0,2023/3/1
GENERATED VIA SPACETRACK.ORG API,18 SPCS,48890,SPACEBEE-104,PAYLOAD,U,21059M,2023/1/30 9:00,32800,15.22236872,0.0008197,97.5762,165.0274,35.0944,325.0831,0,999,8836,0.00077141,0.00017707,0,3765576,0 SPACEBEE-104,1 48890U 21059M   23030.37568325  .00017707  00000-0  77141-3 0  9998,2 48890  97.5762 165.0274 0008197  35.0944 325.0831 15.22236872 88367,2021-059M,48890,6877.232,94.598,504.734,493.46,0,2023/3/2
GENERATED VIA SPACETRACK.ORG API,18 SPCS,48890,SPACEBEE-104,PAYLOAD,U,21059M,2023/1/30 21:38,547264,15.22254507,0.0008188,97.5761,165.5573,33.4668,326.7084,0,999,8844,0.00071825,0.00016488,0,3765849,0 SPACEBEE-104,1 48890U 21059M   23030.90155726  .00016488  00000-0  71825-3 0  9992,2 48890  97.5761 165.5573 0008188  33.4668 326.7084 15.22254507 88440,2021-059M,48890,6877.179,94.597,504.675,493.413,0,2023/3/3
GENERATED VIA SPACETRACK.ORG API,18 SPCS,48890,SPACEBEE-104,PAYLOAD,U,21059M,2023/1/31 2:22,698976,15.22262238,0.000817,97.5761,165.756,32.8761,327.2982,0,999,8847,0.00074349,0.00017075,0,3766475,0 SPACEBEE-104,1 48890U 21059M   23031.09875809  .00017075  00000-0  74349-3 0  9991,2 48890  97.5761 165.7560 0008170  32.8761 327.2982 15.22262238 88472,2021-059M,48890,6877.156,94.596,504.639,493.402,0,2023/3/4
GENERATED VIA SPACETRACK.ORG API,18 SPCS,48890,SPACEBEE-104,PAYLOAD,U,21059M,2023/1/31 19:43,238496,15.22291255,0.0008142,97.5759,166.4846,30.3983,329.7723,0,999,8858,0.00082361,0.00018944,0,3766747,0 SPACEBEE-104,1 48890U 21059M   23031.82181989  .00018944  00000-0  82361-3 0  9990,2 48890  97.5759 166.4846 0008142  30.3983 329.7723 15.22291255 88585,2021-059M,48890,6877.068,94.594,504.533,493.334,0,2023/3/5
GENERATED VIA SPACETRACK.ORG API,18 SPCS,48890,SPACEBEE-104,PAYLOAD,U,21059M,2023/1/31 22:52,760928,15.22296568,0.0008143,97.5758,166.6171,30.3254,329.8451,0,999,8860,0.00082971,0.00019088,0,3766885,0 SPACEBEE-104,1 48890U 21059M   23031.95328427  .00019088  00000-0  82971-3 0  9991,2 48890  97.5758 166.6171 0008143  30.3254 329.8451 15.22296568 88603,2021-059M,48890,6877.052,94.594,504.517,493.317,0,2023/3/6
GENERATED VIA SPACETRACK.ORG API,18 SPCS,48890,SPACEBEE-104,PAYLOAD,U,21059M,2023/2/1 8:20,37056,15.223131,0.0008116,97.5758,167.0146,28.76,331.4081,0,999,8866,0.0008351,0.00019222,0,3767525,0 SPACEBEE-104,1 48890U 21059M   23032.34767404  .00019222  00000-0  83510-3 0  9997,2 48890  97.5758 167.0146 0008116  28.7600 331.4081 15.22313100 88662,2021-059M,48890,6877.003,94.593,504.449,493.286,0,2023/3/7
GENERATED VIA SPACETRACK.ORG API,18 SPCS,48890,SPACEBEE-104,PAYLOAD,U,21059M,2023/2/2 0:07,426656,15.22338089,0.0008084,97.5762,167.677,26.3822,333.7823,0,999,8876,0.00080282,0.00018488,0,3768010,0 SPACEBEE-104,1 48890U 21059M   23033.00498179  .00018488  00000-0  80282-3 0  9997,2 48890  97.5762 167.6770 0008084  26.3822 333.7823 15.22338089 88763,2021-059M,48890,6876.927,94.591,504.352,493.233,0,2023/3/8
GENERATED VIA SPACETRACK.ORG API,18 SPCS,48890,SPACEBEE-104,PAYLOAD,U,21059M,2023/2/2 8:00,724448,15.22355874,0.0008078,97.5762,168.0083,25.2749,334.888,0,999,8881,0.00095366,0.00021997,0,3768366,0 SPACEBEE-104,1 48890U 21059M   23033.33363107  .00021997  00000-0  95366-3 0  9993,2 48890  97.5762 168.0083 0008078  25.2749 334.8880 15.22355874 88816,2021-059M,48890,6876.874,94.59,504.294,493.184,0,2023/3/9
GENERATED VIA SPACETRACK.ORG API,18 SPCS,48890,SPACEBEE-104,PAYLOAD,U,21059M,2023/2/3 7:40,147296,15.22395268,0.0008104,97.5763,169.0021,21.474,338.6835,0,999,8896,0.00090913,0.00020988,0,3770054,0 SPACEBEE-104,1 48890U 21059M   23034.31956189  .00020988  00000-0  90913-3 0  9992,2 48890  97.5763 169.0021 0008104  21.4740 338.6835 15.22395268 88968,2021-059M,48890,6876.755,94.588,504.193,493.047,0,2023/3/10
